NEUTRON-1               
1 46923U 98067RT  20364.48982758  .00010904  00000-0  19095-3 0  9991
2 46923  51.6433 101.5475 0001885 170.0555 190.0472 15.51143356  8483
1998-067RU              
1 46924U 98067RU  20364.47345825  .00022539  00000-0  37136-3 0  9992
2 46924  51.6431 101.4391 0001368 225.1651 134.9227 15.52221858  8450
DESCENT                 
1 46927U 98067RX  20364.49188276  .00011337  00000-0  19851-3 0  9990
2 46927  51.6431 101.5606 0001893 197.2540 162.8385 15.51103107  8395
